name,country,qs_rank,ti_rank,sh_rank,lon,lat,rank,iso2,region,continent,invRank,intRank,rankGroup
Stanford University,USA,2,3,2,-122.169719,37.4274745,2.3333333333333335,US,North America,Americas,0.42857142857142855,2, 0-50
Massachusetts Institute of Technology,USA,1,5,4,-71.09416,42.360091,3.3333333333333335,US,North America,Americas,0.3,3, 0-50
Harvard University,USA,3,6,1,-71.1166601,42.3770029,3.3333333333333335,US,North America,Americas,0.3,3, 0-50
University of Cambridge,UK,5,2,3,0.1149085,52.2042666,3.3333333333333335,GB,Northern Europe,Europe,0.3,3, 0-50
University of Oxford,UK,6,1,7,-1.2543668,51.7548164,4.666666666666667,GB,Northern Europe,Europe,0.21428571428571427,5, 0-50
California Institute of Technology,USA,4,3,9,-118.125269,34.1376576,5.333333333333333,US,North America,Americas,0.1875,5, 0-50
Princeton University,USA,13,7,6,-74.6514481,40.3439888,8.666666666666666,US,North America,Americas,0.11538461538461539,9, 0-50
University of Chicago,USA,9,9,10,-87.5987133,41.7886079,9.333333333333334,US,North America,Americas,0.10714285714285714,9, 0-50
UCL,UK,7,16,16,-0.1340401,51.5245592,13,GB,Northern Europe,Europe,0.07692307692307693,13, 0-50
ETH Zurich,Switzerland,10,10,19,8.5476699,47.376313,13,CH,Western Europe,Europe,0.07692307692307693,13, 0-50
Yale University,USA,16,12,11,-72.9223431,41.3163244,13,US,North America,Americas,0.07692307692307693,13, 0-50
Columbia University,USA,18,14,8,-73.9625727,40.8075355,13.333333333333334,US,North America,Americas,0.075,13, 0-50
Imperial College London,UK,8,8,27,-0.1748772,51.4987997,14.333333333333334,GB,Northern Europe,Europe,0.06976744186046512,14, 0-50
University of Pennsylvania,USA,19,10,17,-75.1932137,39.9522188,15.333333333333334,US,North America,Americas,0.06521739130434782,15, 0-50
Cornell University,USA,14,19,14,-76.4735027,42.4534492,15.666666666666666,US,North America,Americas,0.06382978723404256,16, 0-50
Johns Hopkins University,USA,17,13,18,-76.6205177,39.3299013,16,US,North America,Americas,0.0625,16, 0-50
"University of California, Berkeley",USA,27,18,5,-122.2585399,37.8718992,16.666666666666668,US,North America,Americas,0.06,17, 0-50
"University of California, Los Angeles",USA,33,15,12,-118.4451811,34.068921,20,US,North America,Americas,0.05,20, 0-50
"University of California, San Francisco",USA,-,-,21,-122.4482377,37.7859895,21,US,North America,Americas,0.047619047619047616,21, 0-50
Duke University,USA,21,17,26,-78.9382286,36.0014258,21.333333333333332,US,North America,Americas,0.046875,21, 0-50
University of Michigan,USA,21,21,24,-83.7382241,42.2780436,22,US,North America,Americas,0.045454545454545456,22, 0-50
Northwestern University,USA,28,20,22,-87.675267,42.0564594,23.333333333333332,US,North America,Americas,0.04285714285714286,23, 0-50
University of Toronto,Canada,31,22,23,-79.3956564,43.6628917,25.333333333333332,CA,North America,Americas,0.03947368421052632,25, 0-50
University of Edinburgh,UK,23,27,32,-3.1892413,55.9445158,27.333333333333332,GB,Northern Europe,Europe,0.03658536585365854,27, 0-50
"University of California, San Diego",USA,38,31,15,-117.2340135,32.8800604,28,US,North America,Americas,0.03571428571428571,28, 0-50
University of Tokyo,Japan,28,46,24,139.761989,35.7126775,32.666666666666664,JP,East Asia,Asia,0.030612244897959186,33, 0-50
The University of Hong Kong,Hong Kong,26,40,-,114.1370848,22.2829989,33,HK,East Asia,Asia,0.030303030303030304,33, 0-50
University of Washington,USA,61,25,13,-122.3035199,47.6553351,33,US,North America,Americas,0.030303030303030304,33, 0-50
Tsinghua University,China,25,30,48,116.3264439,39.9996674,34.333333333333336,CN,East Asia,Asia,0.029126213592233007,34, 0-50
King's College London,UK,23,36,46,-0.115997,51.5114864,35,GB,Northern Europe,Europe,0.02857142857142857,35, 0-50
The Rockefeller University,USA,-,-,36,-73.9556889,40.7625706,36,US,North America,Americas,0.027777777777777776,36, 0-50
New York University,USA,52,27,29,-73.9964609,40.7295134,36,US,North America,Americas,0.027777777777777776,36, 0-50
University of Melbourne,Australia,41,32,39,144.9611738,-37.7963689,37.333333333333336,AU,Australia and New Zealand,Oceania,0.026785714285714284,37, 0-50
University of British Columbia,Canada,51,34,31,-123.2459938,49.2606052,38.666666666666664,CA,North America,Americas,0.025862068965517244,39, 0-50
Karolinska Institutet,Sweden,-,38,44,18.0236579,59.3481484,41,SE,Northern Europe,Europe,0.024390243902439025,41, 0-50
École polytechnique fédérale de Lausanne,Switzerland,12,38,76,6.5667576,46.5190557,42,CH,Western Europe,Europe,0.023809523809523808,42, 0-50
University of Manchester,UK,34,54,38,-2.2338837,53.4668498,42,GB,Northern Europe,Europe,0.023809523809523808,42, 0-50
University of Wisconsin–Madison,USA,55,43,28,-89.4124875,43.076592,42,US,North America,Americas,0.023809523809523808,42, 0-50
National University of Singapore,Singapore,15,22,91,103.7763939,1.2966426,42.666666666666664,SG,South East Asia,Asia,0.0234375,43, 0-50
Peking University,China,38,27,71,116.3058739,39.986913,45.333333333333336,CN,East Asia,Asia,0.022058823529411763,45, 0-50
McGill University,Canada,32,42,67,-73.5771511,45.5047847,47,CA,North America,Americas,0.02127659574468085,47, 0-50
University of Illinois at Urbana–Champaign,USA,69,37,37,-88.2271615,40.1019523,47.666666666666664,US,North America,Americas,0.02097902097902098,48, 0-50
The University of Texas Southwestern Medical Center at Dallas,USA,-,-,48,-96.8439894,32.8156603,48,US,North America,Americas,0.020833333333333332,48, 0-50
Kyoto University,Japan,36,74,35,135.7808218,35.0262444,48.333333333333336,JP,East Asia,Asia,0.020689655172413793,48, 0-50
Carnegie Mellon University,USA,47,24,80,-79.9430128,40.4428081,50.333333333333336,US,North America,Americas,0.01986754966887417,50, 50-100
Technical University of Munich,Germany,64,41,50,11.5678602,48.14966,51.666666666666664,DE,Western Europe,Europe,0.01935483870967742,52, 50-100
Heidelberg University,Germany,68,45,42,8.6702492,49.4191402,51.666666666666664,DE,Western Europe,Europe,0.01935483870967742,52, 50-100
Ludwig Maximilian University of Munich,Germany,66,34,57,11.58043,48.150806,52.333333333333336,DE,Western Europe,Europe,0.01910828025477707,52, 50-100
Australian National University,Australia,20,48,97,149.118527,-35.2776999,55,AU,Australia and New Zealand,Oceania,0.01818181818181818,55, 50-100
University of Queensland,Australia,47,65,55,153.0120301,-27.4954306,55.666666666666664,AU,Australia and New Zealand,Oceania,0.017964071856287425,56, 50-100
University of Texas at Austin,USA,67,49,51,-97.7340567,30.2849185,55.666666666666664,US,North America,Americas,0.017964071856287425,56, 50-100
"Ecole normale supérieure, Paris",France,43,-,69,2.3451689,48.8422058,56,FR,Western Europe,Europe,0.017857142857142856,56, 50-100
University of North Carolina at Chapel Hill,USA,80,56,33,-79.0469134,35.9049122,56.333333333333336,US,North America,Americas,0.01775147928994083,56, 50-100
Washington University in St. Louis,USA,100,50,20,-90.3107962,38.6487895,56.666666666666664,US,North America,Americas,0.01764705882352941,57, 50-100
University of Bristol,UK,44,76,61,-2.6029792,51.4584172,60.333333333333336,GB,Northern Europe,Europe,0.016574585635359115,60, 50-100
Georgia Institute of Technology,USA,70,33,85,-84.396285,33.7756178,62.666666666666664,US,North America,Americas,0.01595744680851064,63, 50-100
Nanyang Technological University,Singapore,11,52,125.5,103.6831347,1.3483099,62.833333333333336,SG,South East Asia,Asia,0.015915119363395226,63, 50-100
University of Sydney,Australia,50,61,83,151.1873473,-33.888584,64.66666666666667,AU,Australia and New Zealand,Oceania,0.015463917525773195,65, 50-100
KU Leuven,Belgium,71,47,90,4.7002953,50.8779545,69.33333333333333,BE,Western Europe,Europe,0.014423076923076924,69, 50-100
University of Copenhagen,Denmark,73,109,30,12.5724096,55.6802303,70.66666666666667,DK,Northern Europe,Europe,0.014150943396226414,71, 50-100
Mayo Medical School,USA,-,-,71,-92.4668474,44.0224073,71,US,North America,Americas,0.014084507042253521,71, 50-100
Paris Sciences et Lettres,France,-,72,-,2.3378212,48.8546601,72,FR,Western Europe,Europe,0.013888888888888888,72, 50-100
Monash University,Australia,60,80,78,145.1362182,-37.9105238,72.66666666666667,AU,Australia and New Zealand,Oceania,0.013761467889908256,73, 50-100
Utrecht University,Netherlands,109,68,47,5.1226018,52.0901527,74.66666666666667,NL,Western Europe,Europe,0.013392857142857142,75, 50-100
Brown University,USA,53,50,125.5,-71.4025482,41.8267718,76.16666666666667,US,North America,Americas,0.01312910284463895,76, 50-100
The Chinese University of Hong Kong,Hong Kong,46,58,125.5,114.2109318,22.4162632,76.5,HK,East Asia,Asia,0.013071895424836602,76, 50-100
Boston University,USA,81,70,80,-71.1053991,42.3504997,77,US,North America,Americas,0.012987012987012988,77, 50-100
"University of California, Santa Barbara",USA,134,53,45,-119.848947,34.4139629,77.33333333333333,US,North America,Americas,0.012931034482758622,77, 50-100
London School of Economics,UK,35,25,175.5,-0.1173766,51.5144077,78.5,GB,Northern Europe,Europe,0.012738853503184714,78, 50-100
Seoul National University,Republic of Korea,36,74,125.5,126.9519053,37.459882,78.5,KR,East Asia,Asia,0.012738853503184714,78, 50-100
Ohio State University,USA,86,70,80,-83.0309143,40.0141905,78.66666666666667,US,North America,Americas,0.01271186440677966,79, 50-100
Purdue University,USA,105,60,77,-86.9211946,40.4237054,80.66666666666667,US,North America,Americas,0.012396694214876032,81, 50-100
University of Amsterdam,Netherlands,58,59,125.5,4.9557263,52.3558182,80.83333333333333,NL,Western Europe,Europe,0.012371134020618558,81, 50-100
University of Helsinki,Finland,102,90,56,24.9510419,60.1726348,82.66666666666667,FI,Northern Europe,Europe,0.012096774193548387,83, 50-100
Rice University,USA,89,86,74,-95.4018312,29.7173941,83,US,North America,Americas,0.012048192771084338,83, 50-100
"University of Maryland, College Park",USA,129,69,53,-76.9425543,38.9869183,83.66666666666667,US,North America,Americas,0.01195219123505976,84, 50-100
University of Southern California,USA,132,66,54,-118.285117,34.0223519,84,US,North America,Americas,0.011904761904761904,84, 50-100
University of Minnesota,USA,163,56,34,-93.2277285,44.97399,84.33333333333333,US,North America,Americas,0.011857707509881424,84, 50-100
Pennsylvania State University,USA,93,77,85,-77.8599084,40.7982133,85,US,North America,Americas,0.011764705882352941,85, 50-100
University of Groningen,Netherlands,113,83,59,6.5629872,53.2192634,85,NL,Western Europe,Europe,0.011764705882352941,85, 50-100
The University of New South Wales,Australia,45,85,125.5,151.2312675,-33.917347,85.16666666666667,AU,Australia and New Zealand,Oceania,0.011741682974559686,85, 50-100
"University of California, Davis",USA,118,54,85,-121.7617125,38.5382322,85.66666666666667,US,North America,Americas,0.011673151750972763,86, 50-100
Uppsala University,Sweden,112,86,63,17.6300093,59.8509005,87,SE,Northern Europe,Europe,0.011494252873563218,87, 50-100
Leiden University,Netherlands,109,67,88,4.485209,52.1571485,88,NL,Western Europe,Europe,0.011363636363636364,88, 50-100
University of Zurich,Switzerland,73,136,58,8.5509812,47.3743221,89,CH,Western Europe,Europe,0.011235955056179775,89, 50-100
University of Glasgow,UK,65,80,125.5,-4.2882005,55.8721211,90.16666666666667,GB,Northern Europe,Europe,0.011090573012939002,90, 50-100
Humboldt University of Berlin,Germany,120,62,-,13.3936551,52.517883,91,DE,Western Europe,Europe,0.01098901098901099,91, 50-100
University of Warwick,UK,57,91,125.5,-1.5614704,52.3792525,91.16666666666667,GB,Northern Europe,Europe,0.010968921389396709,91, 50-100
Fudan University,China,40,116,125.5,121.5036178,31.2974197,93.83333333333333,CN,East Asia,Asia,0.010657193605683837,94, 50-100
Osaka University,Japan,63,-,125.5,135.5244676,34.8220139,94.25,JP,East Asia,Asia,0.010610079575596816,94, 50-100
McMaster University,Canada,140,78,66,-79.9192254,43.260879,94.66666666666667,CA,North America,Americas,0.01056338028169014,95, 50-100
University of Geneva,Switzerland,98,130,60,6.1451157,46.199444,96,CH,Western Europe,Europe,0.010416666666666666,96, 50-100
Erasmus University Rotterdam,Netherlands,147,72,73,4.525585,51.91752,97.33333333333333,NL,Western Europe,Europe,0.010273972602739727,97, 50-100
Delft University of Technology,Netherlands,54,63,175.5,4.3758659,51.9962559,97.5,NL,Western Europe,Europe,0.010256410256410256,98, 50-100
Aarhus University,Denmark,119,109,65,10.2030118,56.1681384,97.66666666666667,DK,Northern Europe,Europe,0.010238907849829351,98, 50-100
University of Paris VI: Pierre-and-Marie-Curie University,France,131,123,40,2.357499,48.8471036,98,FR,Western Europe,Europe,0.01020408163265306,98, 50-100
The University of Western Australia,Australia,93,111,91,115.8199096,-31.981179,98.33333333333333,AU,Australia and New Zealand,Oceania,0.01016949152542373,98, 50-100
Lund University,Sweden,78,93,125.5,13.203493,55.7119483,98.83333333333333,SE,Northern Europe,Europe,0.010118043844856662,99, 50-100
Nagoya University,Japan,116,-,84,136.967573,35.153491,100,JP,East Asia,Asia,0.01,100, 50-100
Ghent University,Belgium,125,107,69,3.7279181,51.0465619,100.33333333333333,BE,Western Europe,Europe,0.009966777408637875,100,100-200
Tohoku University,Japan,76,-,125.5,140.874074,38.253834,100.75,JP,East Asia,Asia,0.009925558312655087,101,100-200
University of Pittsburgh,USA,142,100,68,-79.960835,40.4443533,103.33333333333333,US,North America,Americas,0.00967741935483871,103,100-200
University of Sheffield,UK,82,104,125.5,-1.4879469,53.3809409,103.83333333333333,GB,Northern Europe,Europe,0.009630818619582666,104,100-200
Wageningen University & Research,Netherlands,124,64,125.5,5.6657696,51.9845558,104.5,NL,Western Europe,Europe,0.009569377990430622,104,100-200
Free University of Berlin,Germany,125,88,-,13.2896787,52.452526400000004,106.5,DE,Western Europe,Europe,0.009389671361502348,106,100-200
The Hong Kong University of Science and Technology,Hong Kong,30,44,250.5,114.2654655,22.3363998,108.16666666666667,HK,East Asia,Asia,0.009244992295839752,108,100-200
University of Colorado Boulder,USA,182,100,43,-105.2659417,40.007581,108.33333333333333,US,North America,Americas,0.009230769230769232,108,100-200
"University of California, Irvine",USA,164,99,64,-117.8442962,33.6404952,109,US,North America,Americas,0.009174311926605505,109,100-200
University of Alberta,Canada,90,119,125.5,-113.5263186,53.5232189,111.5,CA,North America,Americas,0.008968609865470852,112,100-200
University of Basel,Switzerland,149,95,95,7.5826,47.5602535,113,CH,Western Europe,Europe,0.008849557522123894,113,100-200
University of Southampton,UK,102,126,-,-1.3966381,50.935742,114,GB,Northern Europe,Europe,0.008771929824561403,114,100-200
University of Malaya,Malaysia,114,-,-,101.6543903,3.1201114,114,MY,South East Asia,Asia,0.008771929824561403,114,100-200
Tokyo Institute of Technology,Japan,56,-,175.5,139.6835302,35.6051229,115.75,JP,East Asia,Asia,0.008639308855291577,116,100-200
University of Oslo,Norway,142,146,62,10.7217496,59.9399586,116.66666666666667,NO,Northern Europe,Europe,0.008571428571428572,117,100-200
University of Birmingham,UK,84,141,125.5,-1.9305135,52.4508168,116.83333333333333,GB,Northern Europe,Europe,0.008559201141226819,117,100-200
University of Science and Technology of China,China,97,132,125.5,117.28059,31.821994,118.16666666666667,CN,East Asia,Asia,0.008462623413258109,118,100-200
University of Nottingham,UK,84,147,125.5,-1.1951582,52.938636,118.83333333333333,GB,Northern Europe,Europe,0.008415147265077139,119,100-200
Michigan State University,USA,149,83,125.5,-84.4821719,42.701848,119.16666666666667,US,North America,Americas,0.008391608391608392,119,100-200
University of Leeds,UK,101,139,125.5,-1.5550328,53.8066815,121.83333333333333,GB,Northern Europe,Europe,0.008207934336525308,122,100-200
University of Adelaide,Australia,109,134,125.5,138.6062277,-34.920603,122.83333333333333,AU,Australia and New Zealand,Oceania,0.00814111261872456,123,100-200
Vanderbilt University,USA,212,105,52,-86.8026551,36.1447034,123,US,North America,Americas,0.008130081300813009,123,100-200
Emory University,USA,147,98,125.5,-84.3239989,33.7925195,123.5,US,North America,Americas,0.008097165991902834,124,100-200
Shanghai Jiao Tong University,China,62,188,125.5,121.432841,31.201001,125.16666666666667,CN,East Asia,Asia,0.007989347536617843,125,100-200
Arizona State University,USA,-,-,125.5,-112.1598496,33.6075228,125.5,US,North America,Americas,0.00796812749003984,126,100-200
Baylor College of Medicine,USA,-,-,125.5,-95.396241,29.710529,125.5,US,North America,Americas,0.00796812749003984,126,100-200
Icahn School of Medicine at Mount Sinai,USA,-,-,125.5,-73.9533616,40.7898695,125.5,US,North America,Americas,0.00796812749003984,126,100-200
The University of Texas M. D. Anderson Cancer Center,USA,-,-,125.5,-95.3966904,29.7071962,125.5,US,North America,Americas,0.00796812749003984,126,100-200
Viadrina European University,Germany,-,-,125.5,14.5542827,52.342151,125.5,DE,Western Europe,Europe,0.00796812749003984,126,100-200
University of Southampton,UK,-,-,125.5,-1.3980274,50.9362861,125.5,GB,Northern Europe,Europe,0.00796812749003984,126,100-200
Weizmann Institute of Science,Israel,-,-,125.5,34.8083407,31.9045055,125.5,IL,Middle East,Asia,0.00796812749003984,126,100-200
Charité - Universitätsmedizin Berlin,Germany,-,126,-,13.3766245,52.5264618,126,DE,Western Europe,Europe,0.007936507936507936,126,100-200
University of Freiburg,Germany,171,82,125.5,7.8459496,47.9935441,126.16666666666667,DE,Western Europe,Europe,0.007926023778071334,126,100-200
Trinity College Dublin,Ireland,88,117,175.5,-6.2545716,53.3437935,126.83333333333333,IE,Northern Europe,Europe,0.007884362680683312,127,100-200
Moscow State University,Russian Federation,95,194,93,37.5286696,55.7039349,127.33333333333333,RU,Eastern Europe,Europe,0.007853403141361256,127,100-200
KAIST,Republic of Korea,41,95,250.5,127.3640249,36.3693921,128.83333333333334,KR,East Asia,Asia,0.0077619663648124185,129,100-200
University of Göttingen,Germany,181,113,95,9.9374005,51.5408116,129.66666666666666,DE,Western Europe,Europe,0.007712082262210798,130,100-200
Zhejiang University,China,87,177,125.5,120.123279,30.263944,129.83333333333334,CN,East Asia,Asia,0.007702182284980744,130,100-200
University of Bern,Switzerland,167,105,125.5,7.438119,46.9504896,132.5,CH,Western Europe,Europe,0.007547169811320755,132,100-200
Cardiff University,UK,137,162,99,-3.1788641,51.4866271,132.66666666666666,GB,Northern Europe,Europe,0.007537688442211056,133,100-200
Stockholm University,Sweden,195,134,74,18.060776,59.363154,134.33333333333334,SE,Northern Europe,Europe,0.007444168734491314,134,100-200
Hebrew University of Jerusalem,Israel,145,-,125.5,35.2414009,31.7945578,135.25,IL,Middle East,Asia,0.0073937153419593345,135,100-200
Université catholique de Louvain,Belgium,153,129,125.5,4.6155909,50.6696875,135.83333333333334,BE,Western Europe,Europe,0.007361963190184048,136,100-200
University of Florida,USA,178,143,88,-82.3549302,29.6436325,136.33333333333334,US,North America,Americas,0.007334963325183373,136,100-200
Université de Montréal,Canada,130,108,175.5,-73.6137592,45.5056156,137.83333333333334,CA,North America,Americas,0.007255139056831922,138,100-200
City University of Hong Kong,Hong Kong,49,119,250.5,114.172793,22.3371397,139.5,HK,East Asia,Asia,0.007168458781362007,140,100-200
"Queen Mary, University of London",UK,127,121,175.5,-0.0403745,51.5240671,141.16666666666666,GB,Northern Europe,Europe,0.0070838252656434475,141,100-200
University of Durham,UK,78,97,250.5,-1.5782029,54.7649859,141.83333333333334,GB,Northern Europe,Europe,0.007050528789659224,142,100-200
University of Tübingen,Germany,164,94,175.5,9.043774,48.5294782,144.5,DE,Western Europe,Europe,0.006920415224913495,144,100-200
Technical University of Denmark,Denmark,116,153,175.5,12.521381,55.7855742,148.16666666666666,DK,Northern Europe,Europe,0.006749156355455569,148,100-200
University of São Paulo,Brazil,121,-,175.5,-46.6490459,-23.5916604,148.25,BR,South America,Americas,0.006745362563237774,148,100-200
Hokkaido University,Japan,122,-,175.5,141.340013,43.0779575,148.75,JP,East Asia,Asia,0.0067226890756302525,149,100-200
National Taiwan University,"Taiwan, Province of China",76,198,175.5,121.5397518,25.0173405,149.83333333333334,TW,East Asia,Asia,0.006674082313681868,150,100-200
Radboud University Nijmegen,Netherlands,204,122,125.5,5.8568877,51.8193148,150.5,NL,Western Europe,Europe,0.006644518272425249,150,100-200
University of Virginia,USA,173,113,175.5,-78.5079772,38.0335529,153.83333333333334,US,North America,Americas,0.006500541711809317,154,100-200
University of Exeter,UK,158,130,175.5,-3.5351475,50.7371369,154.5,GB,Northern Europe,Europe,0.006472491909385114,154,100-200
University of Paris-Sud,France,242,181,41,2.1764839,48.6976847,154.66666666666666,FR,Western Europe,Europe,0.006465517241379311,155,100-200
University of Rochester,USA,186,153,125.5,-77.6260033,43.1305531,154.83333333333334,US,North America,Americas,0.006458557588805166,155,100-200
University of Bonn,Germany,239,100,125.5,7.0865227,50.7267715,154.83333333333334,DE,Western Europe,Europe,0.006458557588805166,155,100-200
Sungkyunkwan University,Republic of Korea,108,111,250.5,126.993606,37.588227,156.5,KR,East Asia,Asia,0.006389776357827476,156,100-200
RWTH Aachen University,Germany,141,79,250.5,6.0656869,50.7800778,156.83333333333334,DE,Western Europe,Europe,0.006376195536663124,157,100-200
University of Lausanne,Switzerland,146,152,175.5,6.5801606,46.5210895,157.83333333333334,CH,Western Europe,Europe,0.006335797254487856,158,100-200
University of Liverpool,UK,173,177,125.5,-2.9655722,53.405936,158.5,GB,Northern Europe,Europe,0.006309148264984227,158,100-200
Technion – Israel Institute of Technology,Israel,224,-,93,35.0231271,32.7767783,158.5,IL,Middle East,Asia,0.006309148264984227,158,100-200
Texas A&M University,USA,195,159,125.5,-96.336499,30.618531,159.83333333333334,US,North America,Americas,0.006256517205422314,160,100-200
University of Bath,UK,160,-,-,-2.3272635,51.3781162,160,GB,Northern Europe,Europe,0.00625,160,100-200
National Tsing Hua University,"Taiwan, Province of China",161,-,-,120.9932316,24.7947253,161,TW,East Asia,Asia,0.006211180124223602,161,100-200
University of Buenos Aires,Argentina,75,-,250.5,-58.3730695,-34.5998875,162.75,AR,South America,Americas,0.006144393241167435,163,100-200
University of Arizona,USA,230,161,99,-110.9501094,32.2318851,163.33333333333334,US,North America,Americas,0.006122448979591836,163,100-200
Karlsruhe Institute of Technology,Germany,107,133,250.5,8.4170303,49.0119199,163.5,DE,Western Europe,Europe,0.0061162079510703364,164,100-200
University of Vienna,Austria,154,165,175.5,16.3600504,48.2131855,164.83333333333334,AT,Western Europe,Europe,0.006066734074823053,165,100-200
Case Western Reserve University,USA,213,158,125.5,-81.6083838,41.5043413,165.5,US,North America,Americas,0.006042296072507553,166,100-200
Arizona State University,USA,209,126,-,-111.9280527,33.4242399,167.5,US,North America,Americas,0.005970149253731343,168,100-200
Dartmouth College,USA,169,89,250.5,-72.2886935,43.7044406,169.5,US,North America,Americas,0.0058997050147492625,170,100-200
Vrije Universiteit,Netherlands,218,165,125.5,4.8657199,52.3337568,169.5,NL,Western Europe,Europe,0.0058997050147492625,170,100-200
Korea University,Republic of Korea,90,-,250.5,127.0277773,37.590799,170.25,KR,East Asia,Asia,0.005873715124816446,170,100-200
Indian Institute of Technology Delhi,India,172,-,-,77.1926284,28.5449756,172,IN,South Asia,Asia,0.005813953488372093,172,100-200
King Saud University,Saudi Arabia,221,-,125.5,46.6191078,24.716241,173.25,SA,Middle East,Asia,0.005772005772005772,173,100-200
Scuola Superiore Sant'Anna Pisa di Studi Universitari e di Perfezionamento,Italy,192,155,-,10.4027859,43.7209661,173.5,IT,Southern Europe,Europe,0.005763688760806916,174,100-200
Royal Institute of Technology,Sweden,98,173,250.5,18.0706646,59.3498065,173.83333333333334,SE,Northern Europe,Europe,0.005752636625119846,174,100-200
University of York,UK,135,137,250.5,-1.0561667,53.9455334,174.16666666666666,GB,Northern Europe,Europe,0.005741626794258373,174,100-200
University of Auckland,New Zealand,82,192,250.5,174.7691073,-36.8523378,174.83333333333334,NZ,Australia and New Zealand,Oceania,0.005719733079122974,175,100-200
TU Dresden,Germany,195,155,175.5,13.7289964,51.0292734,175.16666666666666,DE,Western Europe,Europe,0.005708848715509039,175,100-200
University of Bordeaux,France,-,-,175.5,-0.5935827,44.8086048,175.5,FR,Western Europe,Europe,0.005698005698005698,176,100-200
University of Nebraska–Lincoln,USA,-,-,175.5,-96.7004763,40.8201966,175.5,US,North America,Americas,0.005698005698005698,176,100-200
China Medical University (Taichung),China,-,-,175.5,120.6801328,24.1562767,175.5,CN,East Asia,Asia,0.005698005698005698,176,100-200
Sichuan University,China,-,-,175.5,104.070295,30.63785,175.5,CN,East Asia,Asia,0.005698005698005698,176,100-200
Leipzig University,Germany,-,-,175.5,12.3784615,51.3385738,175.5,DE,Western Europe,Europe,0.005698005698005698,176,100-200
University of Massachusetts Medical School - Worcester,USA,-,-,175.5,-71.7610714,42.2772479,175.5,US,North America,Americas,0.005698005698005698,176,100-200
Hong Kong Polytechnic University,Hong Kong,95,182,250.5,114.1784191,22.3028474,175.83333333333334,HK,East Asia,Asia,0.005687203791469194,176,100-200
CentraleSupélec,France,177,-,-,2.1639495,48.7088206,177,FR,Western Europe,Europe,0.005649717514124294,177,100-200
Nanjing University,China,114,169,250.5,118.7789602,32.0568391,177.83333333333334,CN,East Asia,Asia,0.005623242736644799,178,100-200
Rutgers University - New Brunswick,USA,283,172,79,-74.4473991,40.5008186,178,US,North America,Americas,0.0056179775280898875,178,100-200
Yonsei University,Republic of Korea,106,-,250.5,126.938572,37.565784,178.25,KR,East Asia,Asia,0.005610098176718092,178,100-200
Indian Institute of Technology Bombay,India,179,-,-,72.9132679,19.1334302,179,IN,South Asia,Asia,0.00558659217877095,179,100-200
University of Luxembourg,Luxembourg,-,179,-,5.948386,49.504254,179,LU,Western Europe,Europe,0.00558659217877095,179,100-200
Indiana University Bloomington,USA,304,117,125.5,-86.5129458,39.1745704,182.16666666666666,US,North America,Americas,0.0054894784995425435,182,100-200
Maastricht University,Netherlands,200,103,250.5,5.6867065,50.8471373,184.5,NL,Western Europe,Europe,0.005420054200542005,184,100-200
Université libre de Bruxelles,Belgium,205,175,175.5,4.3822222,50.8132068,185.16666666666666,BE,Western Europe,Europe,0.0054005400540054005,185,100-200
Pohang University of Science and Technology,Republic of Korea,71,137,350.5,129.3231836,36.0138857,186.16666666666666,KR,East Asia,Asia,0.005371530886302597,186,100-200
National Autonomous University of Mexico,Mexico,122,-,250.5,-99.1843676,19.3188895,186.25,MX,Central America,Americas,0.005369127516778523,186,100-200
"University of California, Santa Cruz",USA,301,162,98,-122.0582972,36.9914738,187,US,North America,Americas,0.0053475935828877,187,100-200
Scuola Normale Superiore di Pisa,Italy,192,184,-,10.40033,43.719601,188,IT,Southern Europe,Europe,0.005319148936170213,188,100-200
Kyushu University,Japan,128,-,250.5,130.4250445,33.6266584,189.25,JP,East Asia,Asia,0.005284015852047556,189,100-200
Tel Aviv University,Israel,205,-,175.5,34.8043877,32.1133141,190.25,IL,Middle East,Asia,0.005256241787122208,190,100-200
University of Massachusetts Lowell,USA,-,191,-,-71.3240468,42.6500568,191,US,North America,Americas,0.005235602094240838,191,100-200
Chalmers University of Technology,Sweden,133,-,250.5,11.9781232,57.6888144,191.75,SE,Northern Europe,Europe,0.005215123859191656,192,100-200
Norwegian University of Science and Technology,Norway,259,-,125.5,10.4020771,63.419499,192.25,NO,Northern Europe,Europe,0.005201560468140442,192,100-200
University of St Andrews,UK,92,143,350.5,-2.7927522,56.3416934,195.16666666666666,GB,Northern Europe,Europe,0.005123825789923143,195,100-200
Sapienza University of Rome,Italy,215,-,175.5,12.5144384,41.9037626,195.25,IT,Southern Europe,Europe,0.005121638924455826,195,100-200
University of Newcastle,UK,161,175,250.5,-1.6146608,54.9791871,195.5,GB,Northern Europe,Europe,0.005115089514066497,196,100-200
Tufts University,USA,243,169,175.5,-71.1190232,42.4074843,195.83333333333334,US,North America,Americas,0.005106382978723404,196,100-200
University of Calgary,Canada,217,-,175.5,-114.1358007,51.0781599,196.25,CA,North America,Americas,0.005095541401273885,196,100-200
King Abdulaziz University,Saudi Arabia,267,-,125.5,39.2575481,21.5016038,196.25,SA,Middle East,Asia,0.005095541401273885,196,100-200
École Normale Supérieure de Lyon,France,157,182,250.5,4.8285332,45.7298448,196.5,FR,Western Europe,Europe,0.005089058524173028,196,100-200
University of Aberdeen,UK,158,185,250.5,-2.1015257,57.16476,197.83333333333334,GB,Northern Europe,Europe,0.005054759898904802,198,100-200
Eindhoven University of Technology,Netherlands,104,141,350.5,5.4907148,51.4486098,198.5,NL,Western Europe,Europe,0.005037783375314861,198,100-200
Monterrey Institute of Technology and Higher Education,Mexico,199,-,-,-100.28954,25.6515649,199,MX,Central America,Americas,0.005025125628140704,199,100-200
University of Hamburg,Germany,223,-,175.5,9.9846195,53.5665641,199.25,DE,Western Europe,Europe,0.005018820577164366,199,100-200
Georgetown University,USA,227,123,250.5,-77.0722585,38.9076089,200.16666666666666,US,North America,Americas,0.004995836802664446,200,200-300
University of Waterloo,Canada,152,-,250.5,-80.5448576,43.4722854,201.25,CA,North America,Americas,0.004968944099378882,201,200-300
Hanyang University,Republic of Korea,155,-,250.5,127.0453219,37.5572321,202.75,KR,East Asia,Asia,0.004932182490752158,203,200-300
Waseda University,Japan,203,-,-,139.7196485,35.7087334,203,JP,East Asia,Asia,0.0049261083743842365,203,200-300
University of Barcelona,Spain,156,-,250.5,2.16402,41.386608,203.25,ES,Southern Europe,Europe,0.004920049200492005,203,200-300
University of Miami,USA,252,186,175.5,-80.2771253,25.7191685,204.5,US,North America,Americas,0.004889975550122249,204,200-300
University of Notre Dame,USA,216,150,250.5,-86.2353388,41.7055716,205.5,US,North America,Americas,0.004866180048661801,206,200-300
Grenoble Alpes University,France,236,-,175.5,5.7749356,45.1906157,205.75,FR,Western Europe,Europe,0.004860267314702308,206,200-300
University of Illinois at Chicago,USA,207,-,-,-87.6581066,41.8749598,207,US,North America,Americas,0.004830917874396135,207,200-300
University of Bergen,Norway,164,-,250.5,5.3217549,60.3878586,207.25,NO,Northern Europe,Europe,0.0048250904704463205,207,200-300
Macquarie University,Australia,240,-,175.5,151.1126498,-33.7738237,207.75,AU,Australia and New Zealand,Oceania,0.0048134777376654635,208,200-300
University of Erlangen-Nuremberg,Germany,287,162,175.5,11.0045507,49.5978804,208.16666666666666,DE,Western Europe,Europe,0.004803843074459568,208,200-300
University of Sussex,UK,228,147,250.5,-0.087914,50.8670895,208.5,GB,Northern Europe,Europe,0.004796163069544364,208,200-300
University of Alabama at Birmingham,USA,-,168,250.5,-86.8064447,33.5021227,209.25,US,North America,Americas,0.0047789725209080045,209,200-300
Politecnico di Milano,Italy,170,-,250.5,9.2297627,45.4786455,210.25,IT,Southern Europe,Europe,0.0047562425683709865,210,200-300
University of Lancaster,UK,135,150,350.5,-2.7877294,54.0103942,211.83333333333334,GB,Northern Europe,Europe,0.004720692368214005,212,200-300
University of Massachusetts Amherst,USA,249,-,175.5,-72.5267121,42.3911569,212.25,US,North America,Americas,0.004711425206124852,212,200-300
University of Strasbourg,France,303,-,125.5,7.7664545,48.5790692,214.25,FR,Western Europe,Europe,0.004667444574095682,214,200-300
Paris Diderot University,France,305,-,125.5,2.3817936,48.8293187,215.25,FR,Western Europe,Europe,0.004645760743321719,215,200-300
Vrije Universiteit Brussel,Belgium,182,-,250.5,4.394886,50.821658,216.25,BE,Western Europe,Europe,0.004624277456647399,216,200-300
Curtin University,Australia,262,-,175.5,115.8944182,-32.0061951,218.75,AU,Australia and New Zealand,Oceania,0.004571428571428572,219,200-300
University of Gothenburg,Sweden,283,198,175.5,11.971878,57.6981719,218.83333333333334,SE,Northern Europe,Europe,0.004569687738004569,219,200-300
University of Münster,Germany,308,173,175.5,7.6131826,51.9635705,218.83333333333334,DE,Western Europe,Europe,0.004569687738004569,219,200-300
University of Bologna,Italy,188,-,250.5,11.354157,44.4962318,219.25,IT,Southern Europe,Europe,0.004561003420752566,219,200-300
University of Reading,UK,188,-,250.5,-0.9418157,51.4414205,219.25,GB,Northern Europe,Europe,0.004561003420752566,219,200-300
Sciences Po,France,220,-,-,2.3283745,48.8540917,220,FR,Western Europe,Europe,0.004545454545454545,220,200-300
Queen's University,Canada,224,-,-,-76.4951412,44.2252795,224,CA,North America,Americas,0.004464285714285714,224,200-300
National University of Sciences And Technology (NUST) Islamabad,Pakistan,435.5,16,-,-,-,225.75,PK,South Asia,Asia,0.004429678848283499,226,200-300
Queen's University Belfast,UK,202,-,250.5,-5.9340493,54.5844087,226.25,GB,Northern Europe,Europe,0.004419889502762431,226,200-300
"Royal Holloway, University of London",UK,259,197,-,-0.5630625,51.425673,228,GB,Northern Europe,Europe,0.0043859649122807015,228,200-300
Technical University of Berlin,Germany,144,92,450.5,13.3269446,52.5125322,228.83333333333334,DE,Western Europe,Europe,0.004369992716678805,229,200-300
Pompeu Fabra University,Spain,296,140,250.5,2.1797941,41.3789689,228.83333333333334,ES,Southern Europe,Europe,0.004369992716678805,229,200-300
Universiti Putra Malaysia,Malaysia,229,-,-,101.71629,2.991686,229,MY,South East Asia,Asia,0.004366812227074236,229,200-300
National University of Malaysia,Malaysia,230,-,-,101.7774225,2.929997,230,MY,South East Asia,Asia,0.004347826086956522,230,200-300
University of Antwerp,Belgium,210,-,250.5,4.4102318,51.2228097,230.25,BE,Western Europe,Europe,0.0043431053203040176,230,200-300
University of Western Ontario,Canada,210,-,250.5,-81.2737336,43.0095971,230.25,CA,North America,Americas,0.0043431053203040176,230,200-300
University of Innsbruck,Austria,286,-,175.5,11.3838006,47.2633542,230.75,AT,Western Europe,Europe,0.004333694474539545,231,200-300
Autonomous University of Barcelona,Spain,195,147,350.5,2.1048538,41.5019255,230.83333333333334,ES,Southern Europe,Europe,0.004332129963898917,231,200-300
"University of California, Riverside",USA,323,198,175.5,-117.3280644,33.9737055,232.16666666666666,US,North America,Americas,0.004307250538406317,232,200-300
University of Ottawa,Canada,289,-,175.5,-75.6831329,45.4231064,232.25,CA,North America,Americas,0.004305705059203444,232,200-300
Loughborough University,UK,234,-,-,-1.224632,52.769227,234,GB,Northern Europe,Europe,0.004273504273504274,234,200-300
University of Dundee,UK,267,187,250.5,-2.9821428,56.4582447,234.83333333333334,GB,Northern Europe,Europe,0.0042583392476933995,235,200-300
American University of Beirut,Lebanon,235,-,-,35.480744,33.9008359,235,LB,Middle East,Asia,0.00425531914893617,235,200-300
University of Padua,Italy,296,-,175.5,11.8774462,45.406766,235.75,IT,Southern Europe,Europe,0.0042417815482502655,236,200-300
Al-Farabi University,Kazakhstan,236,-,-,76.9219187,43.2252358,236,KZ,Central Asia,Asia,0.00423728813559322,236,200-300
University of Twente,Netherlands,179,179,350.5,6.8508709,52.2393971,236.16666666666666,NL,Western Europe,Europe,0.004234297812279464,236,200-300
University of Cape Town,South Africa,191,171,350.5,18.4611991,-33.957652,237.5,ZA,Southern Africa,Africa,0.004210526315789474,238,200-300
University of Lisbon,Portugal,305,-,175.5,-9.158245,38.7526578,240.25,PT,Southern Europe,Europe,0.004162330905306972,240,200-300
University of Wollongong,Australia,232,-,250.5,150.87843,-34.4054039,241.25,AU,Australia and New Zealand,Oceania,0.004145077720207254,241,200-300
University of Cologne,Germany,331,145,250.5,6.9288192,50.9281625,242.16666666666666,DE,Western Europe,Europe,0.0041293874741913286,242,200-300
Paris-Sorbonne University,France,293,196,-,2.3432774,48.8484556,244.5,FR,Western Europe,Europe,0.00408997955010225,244,200-300
Sun Yat-sen University,China,319,-,175.5,113.298883,23.0965384,247.25,CN,East Asia,Asia,0.004044489383215369,247,200-300
Queensland University of Technology,Australia,247,-,250.5,153.028415,-27.477357,248.75,AU,Australia and New Zealand,Oceania,0.004020100502512563,249,200-300
University of Leicester,UK,238,159,350.5,-1.1246325,52.6211393,249.16666666666666,GB,Northern Europe,Europe,0.004013377926421405,249,200-300
University of Tsukuba,Japan,250,-,250.5,140.103652,36.1088237,250.25,JP,East Asia,Asia,0.003996003996003996,250,200-300
Harbin Institute of Technology,China,325,-,175.5,126.6334306,45.7470436,250.25,CN,East Asia,Asia,0.003996003996003996,250,200-300
Medical University of Vienna,Austria,-,-,250.5,16.3515709,48.2203449,250.5,AT,Western Europe,Europe,0.003992015968063872,250,200-300
University of Oregon,USA,-,-,250.5,-123.0726055,44.0448302,250.5,US,North America,Americas,0.003992015968063872,250,200-300
Oregon Health & Science University,USA,-,-,250.5,-122.6858606,45.4989098,250.5,US,North America,Americas,0.003992015968063872,250,200-300
University of South Florida,USA,-,-,250.5,-82.4138539,28.0587031,250.5,US,North America,Americas,0.003992015968063872,250,200-300
Swedish University of Agricultural Sciences,Sweden,-,-,250.5,17.6628688,59.814947,250.5,SE,Northern Europe,Europe,0.003992015968063872,250,200-300
George Mason University,USA,-,-,250.5,-77.3119442,38.8314875,250.5,US,North America,Americas,0.003992015968063872,250,200-300
University of Houston,USA,-,-,250.5,-95.3422334,29.7199489,250.5,US,North America,Americas,0.003992015968063872,250,200-300
Drexel University,USA,-,-,250.5,-75.1899441,39.9566127,250.5,US,North America,Americas,0.003992015968063872,250,200-300
Claude Bernard University Lyon 1,France,-,-,250.5,4.8679611,45.7788727,250.5,FR,Western Europe,Europe,0.003992015968063872,250,200-300
University of Missouri,USA,-,-,250.5,-92.3277375,38.9403808,250.5,US,North America,Americas,0.003992015968063872,250,200-300
University of Turin,Italy,-,-,250.5,7.6889006,45.069428,250.5,IT,Southern Europe,Europe,0.003992015968063872,250,200-300
King Abdullah University of Science and Technology,Saudi Arabia,-,-,250.5,39.104697,22.309465,250.5,SA,Middle East,Asia,0.003992015968063872,250,200-300
London School of Hygiene & Tropical Medicine,UK,-,-,250.5,-0.1302803,51.5209007,250.5,GB,Northern Europe,Europe,0.003992015968063872,250,200-300
Medical University of South Carolina,USA,-,-,250.5,-79.946747,32.7844632,250.5,US,North America,Americas,0.003992015968063872,250,200-300
Paul Sabatier University (Toulouse 3),France,-,-,250.5,1.4700537,43.5619687,250.5,FR,Western Europe,Europe,0.003992015968063872,250,200-300
Soochow University,China,-,-,250.5,120.651928,31.303257,250.5,CN,East Asia,Asia,0.003992015968063872,250,200-300
South China University of Technology,China,-,-,250.5,113.344683,23.151326,250.5,CN,East Asia,Asia,0.003992015968063872,250,200-300
Southeast University,China,-,-,250.5,118.79421,32.055981,250.5,CN,East Asia,Asia,0.003992015968063872,250,200-300
The University of Texas Health Science Center at San Antonio,USA,-,-,250.5,-98.5753521,29.5074654,250.5,US,North America,Americas,0.003992015968063872,250,200-300
"University at Buffalo, The State University of New York",USA,-,-,250.5,-78.7889697,43.0008093,250.5,US,North America,Americas,0.003992015968063872,250,200-300
University of Belgrade,Serbia,-,-,250.5,20.4575676,44.8184339,250.5,RS,Southern Europe,Europe,0.003992015968063872,250,200-300
University of Granada,Spain,-,-,250.5,-3.6006329,37.1846223,250.5,ES,Southern Europe,Europe,0.003992015968063872,250,200-300
University of Illinois at Chicago,USA,-,-,250.5,-87.6474502,41.8693039,250.5,US,North America,Americas,0.003992015968063872,250,200-300
University of Lorraine,France,-,-,250.5,6.1764664,48.6962743,250.5,FR,Western Europe,Europe,0.003992015968063872,250,200-300
Virginia Commonwealth University,USA,-,-,250.5,-77.4509718,37.5495048,250.5,US,North America,Americas,0.003992015968063872,250,200-300
University of Otago,New Zealand,151,-,350.5,170.5144227,-45.8646835,250.75,NZ,Australia and New Zealand,Oceania,0.003988035892323031,251,200-300
University of Technology Malaysia,Malaysia,253,-,-,103.6381827,1.55849,253,MY,South East Asia,Asia,0.003952569169960474,253,200-300
Beijing Normal University,China,256,-,250.5,116.3662615,39.9619537,253.25,CN,East Asia,Asia,0.003948667324777887,253,200-300
National University of Colombia,Colombia,254,-,-,-74.0840464,4.6381938,254,CO,South America,Americas,0.003937007874015748,254,200-300
Goethe University Frankfurt,Germany,254,-,-,8.6677635,50.1270675,254,DE,Western Europe,Europe,0.003937007874015748,254,200-300
Ecole Polytechnique,France,59,-,450.5,2.2112917,48.7142971,254.75,FR,Western Europe,Europe,0.003925417075564278,255,200-300
University of the Andes,Colombia,256,-,-,-74.0664457,4.6014855,256,CO,South America,Americas,0.00390625,256,200-300
University of Mannheim,Germany,388,125,-,8.4622333,49.4837106,256.5,DE,Western Europe,Europe,0.003898635477582846,256,200-300
North Carolina State University,USA,263,-,250.5,-78.6820946,35.7846633,256.75,US,North America,Americas,0.0038948393378773127,257,200-300
University of Utah,USA,391,-,125.5,-111.8421021,40.7649368,258.25,US,North America,Americas,0.003872216844143272,258,200-300
Aalto University,Finland,137,190,450.5,24.827682,60.1866693,259.1666666666667,FI,Northern Europe,Europe,0.0038585209003215433,259,200-300
University College Dublin,Ireland,168,-,350.5,-6.2236395,53.3082648,259.25,IE,Northern Europe,Europe,0.003857280617164899,259,200-300
Northeastern University,USA,346,193,250.5,-71.0891717,42.3398067,263.1666666666667,US,North America,Americas,0.0037998733375554147,263,200-300
University of Technology Sydney,Australia,176,-,350.5,151.2004942,-33.8832376,263.25,AU,Australia and New Zealand,Oceania,0.003798670465337132,263,200-300
Indian Institute of Technology Madras,India,264,-,-,80.2420012,13.0052137,264,IN,South Asia,Asia,0.003787878787878788,264,200-300
National Taiwan University of Science and Technology,"Taiwan, Province of China",264,-,-,121.5406792,25.0136906,264,TW,East Asia,Asia,0.003787878787878788,264,200-300
Wuhan University,China,282,-,250.5,114.3643219,30.5360485,266.25,CN,East Asia,Asia,0.003755868544600939,266,200-300
Autonomous University of Madrid,Spain,187,-,350.5,-3.6943619,40.5466983,268.75,ES,Southern Europe,Europe,0.0037209302325581397,269,200-300
Linköping University,Sweden,287,-,250.5,15.5760072,58.3978364,268.75,SE,Northern Europe,Europe,0.0037209302325581397,269,200-300
Pantheon-Sorbonne University,France,269,-,-,2.344468,48.8469373,269,FR,Western Europe,Europe,0.0037174721189591076,269,200-300
Ecole des Ponts ParisTech,France,270,-,-,2.587983,48.841069,270,FR,Western Europe,Europe,0.003703703703703704,270,200-300
University of Navarre,Spain,270,-,-,-1.6597295,42.8014859,270,ES,Southern Europe,Europe,0.003703703703703704,270,200-300
Indian Institute of Science,India,190,-,350.5,77.5671423,13.0218597,270.25,IN,South Asia,Asia,0.0037002775208140612,270,200-300
Aix-Marseille University,France,415.5,-,125.5,5.358066,43.293621,270.5,FR,Western Europe,Europe,0.0036968576709796672,270,200-300
University of East Anglia,UK,274,188,350.5,1.2391761,52.6219215,270.8333333333333,GB,Northern Europe,Europe,0.0036923076923076927,271,200-300
Keio University,Japan,192,-,350.5,139.7429376,35.6489643,271.25,JP,East Asia,Asia,0.003686635944700461,271,200-300
Deakin University,Australia,293,-,250.5,144.3596982,-38.1435006,271.75,AU,Australia and New Zealand,Oceania,0.0036798528058877645,272,200-300
Polytechnic University of Catalonia,Spain,275,-,-,2.1132804,41.388004,275,ES,Southern Europe,Europe,0.0036363636363636364,275,200-300
University of Würzburg,Germany,485.5,165,175.5,9.9708462,49.7830083,275.3333333333333,DE,Western Europe,Europe,0.0036319612590799033,275,200-300
University of Chile,Chile,201,-,350.5,-70.6509277,-33.4445204,275.75,CL,South America,Americas,0.003626473254759746,276,200-300
Tilburg University,Netherlands,357,195,-,5.0419736,51.5631406,276,NL,Western Europe,Europe,0.0036231884057971015,276,200-300
Universitas Indonesia,Indonesia,277,-,-,106.8270482,-6.3627638,277,ID,South East Asia,Asia,0.0036101083032490976,277,200-300
University of Strathclyde,UK,277,-,-,-4.2428535,55.8628285,277,GB,Northern Europe,Europe,0.0036101083032490976,277,200-300
National Chiao Tung University,"Taiwan, Province of China",207,-,350.5,120.999263,24.789067,278.75,TW,East Asia,Asia,0.003587443946188341,279,200-300
University of South Australia,Australia,279,-,-,138.6066669,-34.9201652,279,AU,Australia and New Zealand,Oceania,0.0035842293906810036,279,200-300
Carlos III University of Madrid,Spain,281,-,-,-3.7270795,40.316966,281,ES,Southern Europe,Europe,0.0035587188612099642,281,200-300
University of Tasmania,Australia,313,-,250.5,147.3247697,-42.9041217,281.75,AU,Australia and New Zealand,Oceania,0.00354924578527063,282,200-300
Charles University in Prague,Czech Republic,314,-,250.5,14.4234889,50.0871106,282.25,CZ,Eastern Europe,Europe,0.00354295837023915,282,200-300
University College Cork,Ireland,283,-,-,-8.4932737,51.8921099,283,IE,Northern Europe,Europe,0.0035335689045936395,283,200-300
Victoria University of Wellington,New Zealand,219,-,350.5,174.7686615,-41.2904017,284.75,NZ,Australia and New Zealand,Oceania,0.003511852502194908,285,200-300
National Cheng Kung University,"Taiwan, Province of China",222,-,350.5,120.217172,22.9988083,286.25,TW,East Asia,Asia,0.0034934497816593887,286,200-300
"The University of Newcastle, Australia",Australia,224,-,350.5,151.7041775,-32.8927718,287.25,AU,Australia and New Zealand,Oceania,0.0034812880765883376,287,200-300
University of Milan,Italy,325,-,250.5,9.1945843,45.4601435,287.75,IT,Southern Europe,Europe,0.0034752389226759338,288,200-300
The Katz School at Yeshiva University,USA,325,-,250.5,-73.9288728,40.8503116,287.75,US,North America,Americas,0.0034752389226759338,288,200-300
National Taiwan Normal University,"Taiwan, Province of China",289,-,-,121.5275321,25.0260598,289,TW,East Asia,Asia,0.0034602076124567475,289,200-300
Bauman Moscow State Technical University,Russian Federation,291,-,-,37.6855946,55.7659244,291,RU,Eastern Europe,Europe,0.003436426116838488,291,200-300
Complutense University of Madrid,Spain,233,-,350.5,-3.7285872,40.4478246,291.75,ES,Southern Europe,Europe,0.003427592116538132,292,200-300
University of Waikato,New Zealand,292,-,-,175.3184579,-37.7868611,292,NZ,Australia and New Zealand,Oceania,0.003424657534246575,292,200-300
Indian Institute of Technology Kanpur,India,293,-,-,80.2329,26.5123388,293,IN,South Asia,Asia,0.0034129692832764505,293,200-300
Pontificia Universidad Católica de Chile,Chile,137,-,450.5,-70.6407933,-33.4411279,293.75,CL,South America,Americas,0.003404255319148936,294,200-300
Saint Petersburg State University,Russian Federation,240,-,350.5,30.2989199,59.941894,295.25,RU,Eastern Europe,Europe,0.003386960203217612,295,200-300
University of Jena,Germany,341,-,250.5,11.5898195,50.9295513,295.75,DE,Western Europe,Europe,0.0033812341504649195,296,200-300
University of Hawai'i at Mañoa,USA,341,-,250.5,-157.8171118,21.296939,295.75,US,North America,Americas,0.0033812341504649195,296,200-300
"SOAS, University of London",UK,296,-,-,-0.129259,51.52235,296,GB,Northern Europe,Europe,0.0033783783783783786,296,200-300
NUI Galway,Ireland,243,-,350.5,-9.0614864,53.2770243,296.75,IE,Northern Europe,Europe,0.003369839932603201,297,200-300
Xi'an Jiaotong University,China,344,-,250.5,108.983693,34.250803,297.25,CN,East Asia,Asia,0.00336417157275021,297,200-300
Hong Kong Baptist University,Hong Kong,299,-,-,114.1818597,22.3380838,299,HK,East Asia,Asia,0.0033444816053511705,299,200-300
University of Delaware,USA,425.5,-,175.5,-75.7506114,39.6779504,300.5,US,North America,Americas,0.0033277870216306157,300,300-400
University of Iowa,USA,425.5,-,175.5,-91.5548998,41.6626963,300.5,US,North America,Americas,0.0033277870216306157,300,300-400
University of Ulm,Germany,357,-,250.5,9.955582,48.4222305,303.75,DE,Western Europe,Europe,0.0032921810699588477,304,300-400
University of Stuttgart,Germany,259,-,350.5,9.1724985,48.7816472,304.75,DE,Western Europe,Europe,0.003281378178835111,305,300-400
University of Kiel,Germany,435.5,-,175.5,10.1147022,54.3460549,305.5,DE,Western Europe,Europe,0.0032733224222585926,306,300-400
Politecnico di Torino,Italy,307,-,-,7.662203,45.0624921,307,IT,Southern Europe,Europe,0.003257328990228013,307,300-400
University of Surrey,UK,264,-,350.5,-0.5905421,51.2421839,307.25,GB,Northern Europe,Europe,0.0032546786004882017,307,300-400
University of the Witwatersrand,South Africa,364,-,250.5,28.0302973,-26.190508,307.25,ZA,Southern Africa,Africa,0.0032546786004882017,307,300-400
"Birkbeck, University of London",UK,308,-,-,-0.130462,51.521975,308,GB,Northern Europe,Europe,0.003246753246753247,308,300-400
Indian Institute of Technology Kharagpur,India,308,-,-,87.3105311,22.3149274,308,IN,South Asia,Asia,0.003246753246753247,308,300-400
Oregon State University,USA,445.5,-,175.5,-123.2794443,44.5637806,310.5,US,North America,Americas,0.00322061191626409,310,300-400
Paris Descartes University - Sorbonne Paris Cité,France,445.5,-,175.5,2.340761,48.851251,310.5,FR,Western Europe,Europe,0.00322061191626409,310,300-400
King Fahd University of Petroleum and Minerals,Saudi Arabia,173,-,450.5,50.1498042,26.3048047,311.75,SA,Middle East,Asia,0.0032076984763432237,312,300-400
Dalhousie University,Canada,279,-,350.5,-63.5916555,44.6365812,314.75,CA,North America,Americas,0.003177124702144559,315,300-400
Aalborg University,Denmark,379,-,250.5,9.9818527,57.0145665,314.75,DK,Northern Europe,Europe,0.003177124702144559,315,300-400
University of Montpellier,France,381,-,250.5,3.8634485,43.6316206,315.75,FR,Western Europe,Europe,0.003167062549485352,316,300-400
Massey University,New Zealand,316,-,-,174.7027411,-36.7323894,316,NZ,Australia and New Zealand,Oceania,0.0031645569620253164,316,300-400
Tongji University,China,316,-,-,121.5074,31.2853,316,CN,East Asia,Asia,0.0031645569620253164,316,300-400
TU Wien,Austria,182,-,450.5,16.3684626,48.1986546,316.25,AT,Western Europe,Europe,0.0031620553359683794,316,300-400
Universidade Estadual de Campinas,Brazil,182,-,450.5,-47.0647206,-22.8184393,316.25,BR,South America,Americas,0.0031620553359683794,316,300-400
Stony Brook University,USA,382,-,250.5,-73.1233889,40.9123761,316.25,US,North America,Americas,0.0031620553359683794,316,300-400
"University at Buffalo, The State University of New York",USA,318,-,-,-78.8182506,42.9533594,318,US,North America,Americas,0.0031446540880503146,318,300-400
University of Missouri–Kansas City,USA,386,-,250.5,-94.5760259,39.0335539,318.25,US,North America,Americas,0.003142183817753339,318,300-400
Lincoln University,New Zealand,319,-,-,172.4677741,-43.6436854,319,NZ,Australia and New Zealand,Oceania,0.003134796238244514,319,300-400
Tomsk State University,Russian Federation,323,-,-,84.9478675,56.4694917,323,RU,Eastern Europe,Europe,0.0030959752321981426,323,300-400
Johannes Gutenberg University Mainz,Germany,398,-,250.5,8.2415552,49.9926403,324.25,DE,Western Europe,Europe,0.0030840400925212026,324,300-400
University of Porto,Portugal,301,-,350.5,-8.6156998,41.1465479,325.75,PT,Southern Europe,Europe,0.0030698388334612432,326,300-400
Ruhr University Bochum,Germany,405.5,-,250.5,7.2616093,51.4456659,328,DE,Western Europe,Europe,0.003048780487804878,328,300-400
National Yang-Ming University,"Taiwan, Province of China",329,-,-,121.513702,25.123002,329,TW,East Asia,Asia,0.00303951367781155,329,300-400
Ecole Normale Supérieure de Cachan,France,330,-,-,2.3272147,48.7887191,330,FR,Western Europe,Europe,0.0030303030303030303,330,300-400
Federal University of Rio de Janeiro,Brazil,311,-,350.5,-43.1753638,-22.9541412,330.75,BR,South America,Americas,0.0030234315948601664,331,300-400
Institut Teknologi Bandung,Indonesia,331,-,-,107.6106591,-6.89148,331,ID,South East Asia,Asia,0.0030211480362537764,331,300-400
Southern University of Chile,Argentina,331,-,-,-73.2516591,-39.8061639,331,AR,South America,Americas,0.0030211480362537764,331,300-400
University of Canterbury,New Zealand,214,-,450.5,172.5839233,-43.5235375,332.25,NZ,Australia and New Zealand,Oceania,0.0030097817908201654,332,300-400
University of Tartu,Estonia,314,-,350.5,26.7198659,58.3810843,332.25,EE,Northern Europe,Europe,0.0030097817908201654,332,300-400
Belarusian State University,Belarus,334,-,-,27.5460609,53.8938988,334,BY,Eastern Europe,Europe,0.0029940119760479044,334,300-400
Mahidol University,Thailand,334,-,-,100.3234171,13.7945775,334,TH,South East Asia,Asia,0.0029940119760479044,334,300-400
University of Liège,Belgium,319,-,350.5,5.559064,50.5830803,334.75,BE,Western Europe,Europe,0.002987303958177745,335,300-400
L.N. Gumilyov Eurasian National University,Kazakhstan,336,-,-,71.4648566,51.160307,336,KZ,Central Asia,Asia,0.002976190476190476,336,300-400
Hiroshima University,Japan,322,-,350.5,132.714908,34.403123,336.25,JP,East Asia,Asia,0.002973977695167286,336,300-400
University of Belgrano,Argentina,337,-,-,-58.443664,-34.564198,337,AR,South America,Americas,0.002967359050445104,337,300-400
Griffith University,Australia,325,-,350.5,153.0532585,-27.5550897,337.75,AU,Australia and New Zealand,Oceania,0.0029607698001480384,338,300-400
The University of Georgia,USA,425.5,-,250.5,-83.3773221,33.9480053,338,US,North America,Americas,0.0029585798816568047,338,300-400
University of Pisa,Italy,425.5,-,250.5,10.3988593,43.7167235,338,IT,Southern Europe,Europe,0.0029585798816568047,338,300-400
University of Texas at Dallas,USA,425.5,-,250.5,-96.7500993,32.9857619,338,US,North America,Americas,0.0029585798816568047,338,300-400
Boston College,USA,339,-,-,-71.1664609,42.3351179,339,US,North America,Americas,0.0029498525073746312,339,300-400
Gwangju Institute of Science and Technology,Republic of Korea,339,-,-,126.8407202,35.2272692,339,KR,East Asia,Asia,0.0029498525073746312,339,300-400
"City, University of London",UK,343,-,-,-0.1025445,51.5278249,343,GB,Northern Europe,Europe,0.0029154518950437317,343,300-400
Florida State University,USA,435.5,-,250.5,-84.2984889,30.4418778,343,US,North America,Americas,0.0029154518950437317,343,300-400
Umeå University,Sweden,338,-,350.5,20.3036711,63.8205484,344.25,SE,Northern Europe,Europe,0.002904865649963689,344,300-400
University of Essex,UK,347,-,-,0.9472069,51.8777259,347,GB,Northern Europe,Europe,0.002881844380403458,347,300-400
Nankai University,China,344,-,350.5,117.1742232,39.1039443,347.25,CN,East Asia,Asia,0.0028797696184305254,347,300-400
Chulalongkorn University,Thailand,245,-,450.5,100.5276142,13.7390072,347.75,TH,South East Asia,Asia,0.002875629043853343,348,300-400
Simon Fraser University,Canada,245,-,450.5,-122.9198833,49.2780937,347.75,CA,North America,Americas,0.002875629043853343,348,300-400
University of Victoria,Canada,346,-,350.5,-123.3116935,48.4634067,348.25,CA,North America,Americas,0.002871500358937545,348,300-400
RMIT University,Australia,247,-,450.5,144.9642263,-37.8079933,348.75,AU,Australia and New Zealand,Oceania,0.002867383512544803,349,300-400
Qatar University,Qatar,349,-,-,51.4876252,25.376743,349,QA,Middle East,Asia,0.0028653295128939827,349,300-400
Universiti Brunei Darussalam,Brunei Darussalam,349,-,-,114.89397,4.972665,349,BN,South East Asia,Asia,0.0028653295128939827,349,300-400
Novosibirsk State University,Russian Federation,250,-,450.5,83.0943884,54.8477462,350.25,RU,Eastern Europe,Europe,0.0028551034975017845,350,300-400
University of Cincinnati,USA,-,-,350.5,-84.5149504,39.1329219,350.5,US,North America,Americas,0.0028530670470756064,350,300-400
University of Pavia,Italy,-,-,350.5,9.1561041,45.1867156,350.5,IT,Southern Europe,Europe,0.0028530670470756064,350,300-400
University of South Carolina,USA,-,-,350.5,-81.0274276,33.996112,350.5,US,North America,Americas,0.0028530670470756064,350,300-400
Temple University,USA,-,-,350.5,-75.1553512,39.9811935,350.5,US,North America,Americas,0.0028530670470756064,350,300-400
University of Vermont,USA,-,-,350.5,-73.1964637,44.4778528,350.5,US,North America,Americas,0.0028530670470756064,350,300-400
University of Manitoba,Canada,-,-,350.5,-97.1366259,49.8075008,350.5,CA,North America,Americas,0.0028530670470756064,350,300-400
University of Milan-Bicocca,Italy,-,-,350.5,9.213452,45.518383,350.5,IT,Southern Europe,Europe,0.0028530670470756064,350,300-400
Saint Louis University,USA,-,-,350.5,-90.2338232,38.6354598,350.5,US,North America,Americas,0.0028530670470756064,350,300-400
Tongji University,China,-,-,350.5,121.212046,31.282196,350.5,CN,East Asia,Asia,0.0028530670470756064,350,300-400
Western Sydney University,Australia,-,-,350.5,150.7933263,-34.069638,350.5,AU,Australia and New Zealand,Oceania,0.0028530670470756064,350,300-400
Beihang University,China,-,-,350.5,116.3411331,39.9828034,350.5,CN,East Asia,Asia,0.0028530670470756064,350,300-400
Boston College,USA,-,-,350.5,-71.1684945,42.3355488,350.5,US,North America,Americas,0.0028530670470756064,350,300-400
Brigham Young University,USA,-,-,350.5,-111.6493156,40.2518435,350.5,US,North America,Americas,0.0028530670470756064,350,300-400
Capital Medical University,China,-,-,350.5,116.352916,39.865177,350.5,CN,East Asia,Asia,0.0028530670470756064,350,300-400
Central South University,China,-,-,350.5,112.93251,28.16437,350.5,CN,East Asia,Asia,0.0028530670470756064,350,300-400
Chang Gung University,China,-,-,350.5,121.3901211,25.0309866,350.5,CN,East Asia,Asia,0.0028530670470756064,350,300-400
Chiba University,Japan,-,-,350.5,140.1033682,35.6277374,350.5,JP,East Asia,Asia,0.0028530670470756064,350,300-400
China University of Geosciences (Wuhan),China,-,-,350.5,114.401673,30.518151,350.5,CN,East Asia,Asia,0.0028530670470756064,350,300-400
Dalian University of Technology,China,-,-,350.5,121.529021,38.880381,350.5,CN,East Asia,Asia,0.0028530670470756064,350,300-400
East China University of Science and Technology,China,-,-,350.5,121.425248,31.140897,350.5,CN,East Asia,Asia,0.0028530670470756064,350,300-400
ESPCI ParisTech,France,-,-,350.5,2.347206,48.841427,350.5,FR,Western Europe,Europe,0.0028530670470756064,350,300-400
Hannover Medical School,Germany,-,-,350.5,9.805953,52.384053,350.5,DE,Western Europe,Europe,0.0028530670470756064,350,300-400
Hunan University,China,-,-,350.5,112.94395,28.178915,350.5,CN,East Asia,Asia,0.0028530670470756064,350,300-400
Indiana University – Purdue University Indianapolis,USA,-,-,350.5,-86.1763393,39.7738832,350.5,US,North America,Americas,0.0028530670470756064,350,300-400
Lanzhou University,China,-,-,350.5,103.8585624,36.0477699,350.5,CN,East Asia,Asia,0.0028530670470756064,350,300-400
Louisiana State University,USA,-,-,350.5,-91.1800023,30.4132579,350.5,US,North America,Americas,0.0028530670470756064,350,300-400
National and Kapodistrian University of Athens,Greece,-,-,350.5,23.7786871,37.968196,350.5,GR,Southern Europe,Europe,0.0028530670470756064,350,300-400
Ocean University of China,China,-,-,350.5,120.335301,36.061255,350.5,CN,East Asia,Asia,0.0028530670470756064,350,300-400
Okayama University,Japan,-,-,350.5,133.9222225,34.6873868,350.5,JP,East Asia,Asia,0.0028530670470756064,350,300-400
Shandong University,China,-,-,350.5,117.029014,36.64893,350.5,CN,East Asia,Asia,0.0028530670470756064,350,300-400
The University of Texas Health Science Center at Houston,USA,-,-,350.5,-95.4030452,29.7034179,350.5,US,North America,Americas,0.0028530670470756064,350,300-400
University of Central Florida,USA,-,-,350.5,-81.2000599,28.6024274,350.5,US,North America,Americas,0.0028530670470756064,350,300-400
University of Duesseldorf,Germany,-,-,350.5,6.794503,51.1888113,350.5,DE,Western Europe,Europe,0.0028530670470756064,350,300-400
University of Kentucky,USA,-,-,350.5,-84.5039697,38.0306511,350.5,US,North America,Americas,0.0028530670470756064,350,300-400
University of North Texas,USA,-,-,350.5,-97.1525862,33.207488,350.5,US,North America,Americas,0.0028530670470756064,350,300-400
University of Santiago de Compostela,Spain,-,-,350.5,-8.5449726,42.8885225,350.5,ES,Southern Europe,Europe,0.0028530670470756064,350,300-400
University of Tehran,Iran (Islamic Republic of),-,-,350.5,51.3957307,35.7022192,350.5,IR,South Asia,Asia,0.0028530670470756064,350,300-400
Toulouse 1 University Capitole,France,-,-,350.5,1.4371122,43.6067724,350.5,FR,Western Europe,Europe,0.0028530670470756064,350,300-400
George Washington University,USA,352,-,350.5,-77.0485992,38.8997145,351.25,US,North America,Americas,0.0028469750889679717,351,300-400
"Université Paris-Dauphine, PSL Research University",France,355,-,350.5,2.273451,48.870029,352.75,FR,Western Europe,Europe,0.002834868887313962,353,300-400
University of Tennessee,USA,455.5,-,250.5,-83.9294564,35.9544013,353,US,North America,Americas,0.0028328611898017,353,300-400
Kyung Hee University,Republic of Korea,256,-,450.5,127.052544,37.5961951,353.25,KR,East Asia,Asia,0.0028308563340410475,353,300-400
Moscow Institute of Physics and Technology,Russian Federation,355,-,-,37.5199434,55.9297243,355,RU,Eastern Europe,Europe,0.0028169014084507044,355,300-400
La Trobe University,Australia,360,-,350.5,145.048414,-37.7206671,355.25,AU,Australia and New Zealand,Oceania,0.0028149190710767065,355,300-400
University of Jyväskylä,Finland,357,-,-,25.7316336,62.2365317,357,FI,Northern Europe,Europe,0.0028011204481792717,357,300-400
University of Science Malaysia,Malaysia,264,-,450.5,100.3025177,5.3559337,357.25,MY,South East Asia,Asia,0.0027991602519244225,357,300-400
James Cook University,Australia,367,-,350.5,146.7572865,-19.326378,358.75,AU,Australia and New Zealand,Oceania,0.0027874564459930314,359,300-400
Virginia Tech,USA,367,-,350.5,-80.4234167,37.2283843,358.75,US,North America,Americas,0.0027874564459930314,359,300-400
Oxford Brookes University,UK,361,-,-,-1.224225,51.755011,361,GB,Northern Europe,Europe,0.002770083102493075,361,300-400
Universidade Nova de Lisboa,Portugal,361,-,-,-9.160333,38.733682,361,PT,Southern Europe,Europe,0.002770083102493075,361,300-400
Technische Universität Darmstadt,Germany,272,-,450.5,8.65614,49.874778,361.25,DE,Western Europe,Europe,0.002768166089965398,361,300-400
Huazhong University of Science and Technology,China,475.5,-,250.5,114.406972,30.510616,363,CN,East Asia,Asia,0.0027548209366391185,363,300-400
Iowa State University,USA,475.5,-,250.5,-93.6464654,42.0266187,363,US,North America,Americas,0.0027548209366391185,363,300-400
University of Turku,Finland,276,-,450.5,22.2851138,60.4562974,363.25,FI,Northern Europe,Europe,0.0027529249827942187,363,300-400
Pontifical Catholic University of Argentina,Argentina,364,-,-,-58.3661389,-34.612809,364,AR,South America,Americas,0.0027472527472527475,364,300-400
Rensselaer Polytechnic Institute,USA,364,-,-,-73.678803,42.730172,364,US,North America,Americas,0.0027472527472527475,364,300-400
Laval University,Canada,378,-,350.5,-71.2747424,46.7817463,364.25,CA,North America,Americas,0.002745367192862045,364,300-400
Tokyo Medical and Dental University,Japan,367,-,-,139.764451,35.7012897,367,JP,East Asia,Asia,0.0027247956403269754,367,300-400
University of the Philippines,Philippines,367,-,-,121.0107556,14.5979292,367,PH,South East Asia,Asia,0.0027247956403269754,367,300-400
University of Tromsø,Norway,367,-,-,18.9710079,69.679788,367,NO,Northern Europe,Europe,0.0027247956403269754,367,300-400
University of Southern Denmark,Denmark,384,-,350.5,10.4282364,55.3689827,367.25,DK,Northern Europe,Europe,0.002722940776038121,367,300-400
Colorado State University,USA,485.5,-,250.5,-105.0865473,40.573436,368,US,North America,Americas,0.002717391304347826,368,300-400
University of St.Gallen,Switzerland,372,-,-,9.3755673,47.4321575,372,CH,Western Europe,Europe,0.002688172043010753,372,300-400
University of Colorado Denver,USA,394,-,350.5,-105.0023325,39.7463895,372.25,US,North America,Americas,0.002686366689053056,372,300-400
Aston University,UK,373,-,-,-1.8882174,52.4868584,373,GB,Northern Europe,Europe,0.002680965147453083,373,300-400
Moscow State Institute of International Relations,Russian Federation,373,-,-,37.4846619,55.6728244,373,RU,Eastern Europe,Europe,0.002680965147453083,373,300-400
National Research Nuclear University,Russian Federation,373,-,-,37.6638742,55.649567,373,RU,Eastern Europe,Europe,0.002680965147453083,373,300-400
University of Kent,UK,373,-,-,1.0682493,51.2968974,373,GB,Northern Europe,Europe,0.002680965147453083,373,300-400
Ewha Womans University,Republic of Korea,299,-,450.5,126.9468294,37.5618577,374.75,KR,East Asia,Asia,0.00266844563042028,375,300-400
Tampere University of Technology,Finland,380,-,-,23.8586408,61.4497952,380,FI,Northern Europe,Europe,0.002631578947368421,380,300-400
Heriot-Watt University,UK,312,-,450.5,-3.3203494,55.9096602,381.25,GB,Northern Europe,Europe,0.002622950819672131,381,300-400
National Research University – Higher School of Economics,Russian Federation,382,-,-,44.0672315,56.3173389,382,RU,Eastern Europe,Europe,0.002617801047120419,382,300-400
Brandeis University,USA,415.5,-,350.5,-71.258663,42.364989,383,US,North America,Americas,0.0026109660574412533,383,300-400
University of Warsaw,Poland,415.5,-,350.5,21.0186012,52.2403463,383,PL,Eastern Europe,Europe,0.0026109660574412533,383,300-400
National Research Tomsk Polytechnic University,Russian Federation,386,-,-,84.9496823,56.4652485,386,RU,Eastern Europe,Europe,0.0025906735751295338,386,300-400
National Sun Yat-sen University,"Taiwan, Province of China",388,-,-,120.265843,22.6264249,388,TW,East Asia,Asia,0.002577319587628866,388,300-400
Swinburne University of Technology,Australia,425.5,-,350.5,145.0389546,-37.8221504,388,AU,Australia and New Zealand,Oceania,0.002577319587628866,388,300-400
University of Connecticut,USA,425.5,-,350.5,-72.2539805,41.8077414,388,US,North America,Americas,0.002577319587628866,388,300-400
United Arab Emirates University,United Arab Emirates,390,-,-,55.676034,24.200588,390,AE,Middle East,Asia,0.002564102564102564,390,300-400
Dublin City University,Ireland,391,-,-,-6.2567865,53.385062,391,IE,Northern Europe,Europe,0.0025575447570332483,391,300-400
National Central University,"Taiwan, Province of China",391,-,-,121.1925163,24.9694808,391,TW,East Asia,Asia,0.0025575447570332483,391,300-400
Xiamen University,China,435.5,-,350.5,118.097855,24.4373484,393,CN,East Asia,Asia,0.002544529262086514,393,300-400
The American University in Cairo,Egypt,395,-,-,31.499674,30.018923,395,EG,North Africa,Africa,0.002531645569620253,395,300-400
Illinois Institute of Technology,USA,395,-,-,-87.6270059,41.8348731,395,US,North America,Americas,0.002531645569620253,395,300-400
HUFS - Hankuk (Korea) University of Foreign Studies,Republic of Korea,397,-,-,127.057843,37.597319,397,KR,East Asia,Asia,0.0025188916876574307,397,300-400
